ORBCOMM FM06            
1 25118U 97084G   26183.82828520  .00001476  00000+0  43601-3 0  9994
2 25118  45.0147 337.4140 0000450 188.3981 336.4432 14.47602917496655
ORBCOMM FM04            
1 25159U 98007C   26183.86193520  .00000886  00000+0  34831-3 0  9993
2 25159 107.9627 201.6808 0041753 297.8982  61.7933 14.35768756478848
ORBCOMM FM19            
1 25415U 98046C   26183.71761627  .00000980  00000+0  35668-3 0  9998
2 25415  44.9922 169.7375 0003984 349.2897 180.2427 14.39521404459019
ORBCOMM FM20            
1 25416U 98046D   26183.71316868  .00000639  00000+0  25565-3 0  9998
2 25416  44.9921 177.8526 0002322 302.7941  57.2684 14.38084802459020
ORBCOMM FM27            
1 25481U 98053G   26183.59827763  .00000889  00000+0  33014-3 0  9990
2 25481  45.0049 262.1555 0002187 248.6088 111.4527 14.39169425452459
ORBCOMM FM32            
1 25982U 99065C   26183.79234290  .00000861  00000+0  33427-3 0  9997
2 25982  45.0150  99.3728 0004549 127.3798 232.7465 14.37152971389335
ORBCOMM FM109           
1 40086U 14040A   26183.85035294  .00000554  00000+0  15330-3 0  9991
2 40086  47.0041  17.4322 0001871 287.3925  72.6756 14.58862919636638
ORBCOMM FM110           
1 41182U 15081D   26183.65009342  .00000812  00000+0  20786-3 0  9996
2 41182  47.0024 288.3297 0002908 165.1476 194.9496 14.58904840559883
ORBCOMM FM118           
1 41183U 15081E   26183.75289623  .00000512  00000+0  14456-3 0  9994
2 41183  47.0044 288.1781 0002327 120.4306 239.6810 14.58895052560000
ORBCOMM FM112           
1 41184U 15081F   26183.75716074  .00000548  00000+0  15195-3 0  9990
2 41184  46.9971 196.6196 0004130 278.6785  81.3632 14.58921598561226
ORBCOMM FM113           
1 41185U 15081G   26183.73429861  .00000358  00000+0  11196-3 0  9990
2 41185  46.9987 197.1118 0002625 277.7758  82.2829 14.58871935561206
ORBCOMM FM108           
1 41187U 15081J   26183.83348505  .00000764  00000+0  19767-3 0  9991
2 41187  47.0046 108.2203 0003134 278.3244  81.7286 14.58894583562360
ORBCOMM FM117           
1 41188U 15081K   26183.79911376  .00000651  00000+0  17401-3 0  9997
2 41188  47.0010 107.0129 0003573 282.7851  77.2635 14.58881463562402
ORBCOMM FM116           
1 41189U 15081L   26182.47813415  .00000304  00000+0  10040-3 0  9994
2 41189  47.0005 203.0491 0000940 184.3505 175.7373 14.58897315561027
